start=new Date('2023-01-05T00:00:00.000Z').valueOf();
sats=[{"TLE_LINE1":"1 44934U 20001W   23004.67533417  .00003233  00000-0  23573-3 0  9996","APOAPSIS":"548.139","RCS_SIZE":"LARGE","OBJECT_NAME":"STARLINK-1071","ECCENTRICITY":"0.00013900","OBJECT_TYPE":"PAYLOAD","ARG_OF_PERICENTER":"76.2862","SEMIMAJOR_AXIS":"6925.311","BSTAR":"0.00023573000000","EPHEMERIS_TYPE":"0","MEAN_ANOMALY":"283.8281","PERIOD":"95.591","MEAN_MOTION_DOT":"0.00003233","CLASSIFICATION_TYPE":"U","DECAY_DATE":null,"NORAD_CAT_ID":"44934","ELEMENT_SET_NO":"999","CENTER_NAME":"EARTH","GP_ID":"222194137","TLE_LINE2":"2 44934  53.0555 134.1365 0001390  76.2862 283.8281 15.06412112165283","SITE":"AFETR","COUNTRY_CODE":"US","REV_AT_EPOCH":"16528","RA_OF_ASC_NODE":"134.1365","REF_FRAME":"TEME","LAUNCH_DATE":"2020-01-07","MEAN_ELEMENT_THEORY":"SGP4","INCLINATION":"53.0555","EPOCH":"2023-01-04T16:12:28.872288","TIME_SYSTEM":"UTC","MEAN_MOTION":"15.06412112","MEAN_MOTION_DDOT":"0.0000000000000","FILE":"3732060","OBJECT_ID":"2020-001W","PERIAPSIS":"546.214"},{"PERIAPSIS":"546.387","OBJECT_ID":"2020-001Z","FILE":"3731823","MEAN_MOTION_DDOT":"0.0000000000000","MEAN_MOTION":"15.06396824","TIME_SYSTEM":"UTC","INCLINATION":"53.0536","LAUNCH_DATE":"2020-01-07","MEAN_ELEMENT_THEORY":"SGP4","EPOCH":"2023-01-04T07:42:57.117024","RA_OF_ASC_NODE":"135.7251","REV_AT_EPOCH":"16523","REF_FRAME":"TEME","COUNTRY_CODE":"US","TLE_LINE2":"2 44937  53.0536 135.7251 0001207  81.1914 278.9211 15.06396824165230","SITE":"AFETR","CENTER_NAME":"EARTH","GP_ID":"222157210","NORAD_CAT_ID":"44937","ELEMENT_SET_NO":"999","CLASSIFICATION_TYPE":"U","DECAY_DATE":null,"MEAN_MOTION_DOT":"0.00001442","PERIOD":"95.592","MEAN_ANOMALY":"278.9211","EPHEMERIS_TYPE":"0","BSTAR":"0.00011569000000","ARG_OF_PERICENTER":"81.1914","SEMIMAJOR_AXIS":"6925.358","OBJECT_TYPE":"PAYLOAD","OBJECT_NAME":"STARLINK-1079","ECCENTRICITY":"0.00012070","RCS_SIZE":"LARGE","TLE_LINE1":"1 44937U 20001Z   23004.32149441  .00001442  00000-0  11569-3 0  9993","APOAPSIS":"548.059"},{"TIME_SYSTEM":"UTC","MEAN_ELEMENT_THEORY":"SGP4","LAUNCH_DATE":"2020-01-07","INCLINATION":"53.0528","EPOCH":"2023-01-04T08:30:43.239168","MEAN_MOTION_DDOT":"0.0000000000000","FILE":"3731823","MEAN_MOTION":"15.06401347","PERIAPSIS":"546.157","OBJECT_ID":"2020-001AA","CENTER_NAME":"EARTH","GP_ID":"222155966","TLE_LINE2":"2 44938  53.0528 135.5670 0001520  76.3393 283.7765 15.06401347165235","SITE":"AFETR","COUNTRY_CODE":"US","RA_OF_ASC_NODE":"135.5670","REV_AT_EPOCH":"16523","REF_FRAME":"TEME","MEAN_ANOMALY":"283.7765","BSTAR":"0.00023233000000","EPHEMERIS_TYPE":"0","MEAN_MOTION_DOT":"0.00003181","PERIOD":"95.592","CLASSIFICATION_TYPE":"U","DECAY_DATE":null,"NORAD_CAT_ID":"44938","ELEMENT_SET_NO":"999","TLE_LINE1":"1 44938U 20001AA  23004.35466712  .00003181  00000-0  23233-3 0  9993","APOAPSIS":"548.262","RCS_SIZE":"LARGE","OBJECT_NAME":"STARLINK-1082","ECCENTRICITY":"0.00015200","SEMIMAJOR_AXIS":"6925.344","ARG_OF_PERICENTER":"76.3393","OBJECT_TYPE":"PAYLOAD"},{"OBJECT_TYPE":"PAYLOAD","ARG_OF_PERICENTER":"60.3548","SEMIMAJOR_AXIS":"6925.274","OBJECT_NAME":"STARLINK-1083","ECCENTRICITY":"0.00014970","RCS_SIZE":"LARGE","TLE_LINE1":"1 44939U 20001AB  23004.62738269  .00004861  00000-0  34481-3 0  9996","APOAPSIS":"548.176","NORAD_CAT_ID":"44939","ELEMENT_SET_NO":"999","CLASSIFICATION_TYPE":"U","DECAY_DATE":null,"PERIOD":"95.591","MEAN_MOTION_DOT":"0.00004861","BSTAR":"0.00034481000000","EPHEMERIS_TYPE":"0","MEAN_ANOMALY":"299.7590","RA_OF_ASC_NODE":"134.3516","REV_AT_EPOCH":"16527","REF_FRAME":"TEME","COUNTRY_CODE":"US","TLE_LINE2":"2 44939  53.0535 134.3516 0001497  60.3548 299.7590 15.06424325165276","SITE":"AFETR","CENTER_NAME":"EARTH","GP_ID":"222194243","OBJECT_ID":"2020-001AB","PERIAPSIS":"546.102","MEAN_MOTION":"15.06424325","FILE":"3732066","MEAN_MOTION_DDOT":"0.0000000000000","INCLINATION":"53.0535","LAUNCH_DATE":"2020-01-07","EPOCH":"2023-01-04T15:03:25.864416","MEAN_ELEMENT_THEORY":"SGP4","TIME_SYSTEM":"UTC"},{"TLE_LINE2":"2 44940  53.0535 135.4857 0001602  58.9575 301.1571 15.06397097165237","SITE":"AFETR","CENTER_NAME":"EARTH","GP_ID":"222156467","RA_OF_ASC_NODE":"135.4857","REV_AT_EPOCH":"16523","REF_FRAME":"TEME","COUNTRY_CODE":"US","TIME_SYSTEM":"UTC","LAUNCH_DATE":"2020-01-07","EPOCH":"2023-01-04T08:57:15.443424","INCLINATION":"53.0535","MEAN_ELEMENT_THEORY":"SGP4","PERIAPSIS":"546.113","OBJECT_ID":"2020-001AC","FILE":"3731823","MEAN_MOTION_DDOT":"0.0000000000000","MEAN_MOTION":"15.06397097","RCS_SIZE":"LARGE","TLE_LINE1":"1 44940U 20001AC  23004.37309541  .00000768  00000-0  70429-4 0  9992","APOAPSIS":"548.332","ARG_OF_PERICENTER":"58.9575","SEMIMAJOR_AXIS":"6925.357","OBJECT_TYPE":"PAYLOAD","OBJECT_NAME":"STARLINK-1091","ECCENTRICITY":"0.00016020","MEAN_MOTION_DOT":"0.00000768","PERIOD":"95.592","MEAN_ANOMALY":"301.1571","BSTAR":"0.00007042900000","EPHEMERIS_TYPE":"0","NORAD_CAT_ID":"44940","ELEMENT_SET_NO":"999","CLASSIFICATION_TYPE":"U","DECAY_DATE":null},{"OBJECT_NAME":"STARLINK-1094","ECCENTRICITY":"0.00015060","OBJECT_TYPE":"PAYLOAD","SEMIMAJOR_AXIS":"6925.328","ARG_OF_PERICENTER":"77.6282","APOAPSIS":"548.236","TLE_LINE1":"1 44941U 20001AD  23004.66059342  .00001136  00000-0  95117-4 0  9997","RCS_SIZE":"LARGE","DECAY_DATE":null,"CLASSIFICATION_TYPE":"U","ELEMENT_SET_NO":"999","NORAD_CAT_ID":"44941","BSTAR":"0.00009511700000","EPHEMERIS_TYPE":"0","MEAN_ANOMALY":"282.4875","PERIOD":"95.592","MEAN_MOTION_DOT":"0.00001136","COUNTRY_CODE":"US","REF_FRAME":"TEME","RA_OF_ASC_NODE":"134.2006","REV_AT_EPOCH":"16528","GP_ID":"222194280","CENTER_NAME":"EARTH","SITE":"AFETR","TLE_LINE2":"2 44941  53.0554 134.2006 0001506  77.6282 282.4875 15.06406810165285","MEAN_MOTION":"15.06406810","FILE":"3732067","MEAN_MOTION_DDOT":"0.0000000000000","OBJECT_ID":"2020-001AD","PERIAPSIS":"546.150","LAUNCH_DATE":"2020-01-07","INCLINATION":"53.0554","EPOCH":"2023-01-04T15:51:15.271488","MEAN_ELEMENT_THEORY":"SGP4","TIME_SYSTEM":"UTC"},{"MEAN_MOTION_DOT":"0.00032729","PERIOD":"95.155","MEAN_ANOMALY":"216.0748","BSTAR":"0.00182470000000","EPHEMERIS_TYPE":"0","NORAD_CAT_ID":"44942","ELEMENT_SET_NO":"999","CLASSIFICATION_TYPE":"U","DECAY_DATE":null,"RCS_SIZE":"LARGE","TLE_LINE1":"1 44942U 20001AE  23004.60184491  .00032729  00000-0  18247-2 0  9995","APOAPSIS":"527.830","SEMIMAJOR_AXIS":"6904.230","ARG_OF_PERICENTER":"144.0414","OBJECT_TYPE":"PAYLOAD","OBJECT_NAME":"STARLINK-1096","ECCENTRICITY":"0.00025140","TIME_SYSTEM":"UTC","LAUNCH_DATE":"2020-01-07","INCLINATION":"53.0540","MEAN_ELEMENT_THEORY":"SGP4","EPOCH":"2023-01-04T14:26:39.400224","PERIAPSIS":"524.359","OBJECT_ID":"2020-001AE","MEAN_MOTION_DDOT":"0.0000000000000","FILE":"3731823","MEAN_MOTION":"15.13316999","TLE_LINE2":"2 44942  53.0540 129.1346 0002514 144.0414 216.0748 15.13316999165353","SITE":"AFETR","CENTER_NAME":"EARTH","GP_ID":"222155466","REV_AT_EPOCH":"16535","RA_OF_ASC_NODE":"129.1346","REF_FRAME":"TEME","COUNTRY_CODE":"US"},{"APOAPSIS":"547.920","TLE_LINE1":"1 44943U 20001AF  23004.62373564  .00005650  00000-0  39794-3 0  9993","RCS_SIZE":"LARGE","ECCENTRICITY":"0.00009830","OBJECT_NAME":"STARLINK-1100","ARG_OF_PERICENTER":"70.9386","SEMIMAJOR_AXIS":"6925.375","OBJECT_TYPE":"PAYLOAD","MEAN_ANOMALY":"289.1709","BSTAR":"0.00039794000000","EPHEMERIS_TYPE":"0","MEAN_MOTION_DOT":"0.00005650","PERIOD":"95.593","DECAY_DATE":null,"CLASSIFICATION_TYPE":"U","ELEMENT_SET_NO":"999","NORAD_CAT_ID":"44943","GP_ID":"222155716","CENTER_NAME":"EARTH","SITE":"AFETR","TLE_LINE2":"2 44943  53.0538 134.3693 0000983  70.9386 289.1709 15.06391513165273","COUNTRY_CODE":"US","REF_FRAME":"TEME","RA_OF_ASC_NODE":"134.3693","REV_AT_EPOCH":"16527","TIME_SYSTEM":"UTC","MEAN_ELEMENT_THEORY":"SGP4","LAUNCH_DATE":"2020-01-07","INCLINATION":"53.0538","EPOCH":"2023-01-04T14:58:10.759296","MEAN_MOTION_DDOT":"0.0000000000000","FILE":"3731823","MEAN_MOTION":"15.06391513","PERIAPSIS":"546.559","OBJECT_ID":"2020-001AF"},{"CLASSIFICATION_TYPE":"U","DECAY_DATE":null,"NORAD_CAT_ID":"44944","ELEMENT_SET_NO":"999","MEAN_ANOMALY":"292.0613","BSTAR":"-0.00023901000000","EPHEMERIS_TYPE":"0","MEAN_MOTION_DOT":"-0.00003843","PERIOD":"95.590","OBJECT_NAME":"STARLINK-1108","ECCENTRICITY":"0.00017370","ARG_OF_PERICENTER":"68.0560","SEMIMAJOR_AXIS":"6925.265","OBJECT_TYPE":"PAYLOAD","TLE_LINE1":"1 44944U 20001AG  23004.67164718 -.00003843  00000-0 -23901-3 0  9995","APOAPSIS":"548.332","RCS_SIZE":"LARGE","FILE":"3732069","MEAN_MOTION_DDOT":"0.0000000000000","MEAN_MOTION":"15.06427407","PERIAPSIS":"545.927","OBJECT_ID":"2020-001AG","TIME_SYSTEM":"UTC","MEAN_ELEMENT_THEORY":"SGP4","LAUNCH_DATE":"2020-01-07","INCLINATION":"53.0552","EPOCH":"2023-01-04T16:07:10.316352","COUNTRY_CODE":"US","REV_AT_EPOCH":"16528","RA_OF_ASC_NODE":"134.1496","REF_FRAME":"TEME","CENTER_NAME":"EARTH","GP_ID":"222194331","TLE_LINE2":"2 44944  53.0552 134.1496 0001737  68.0560 292.0613 15.06427407165289","SITE":"AFETR"},{"RCS_SIZE":"LARGE","TLE_LINE1":"1 44945U 20001AH  23004.63478990  .00003979  00000-0  28575-3 0  9992","APOAPSIS":"548.080","SEMIMAJOR_AXIS":"6925.309","ARG_OF_PERICENTER":"65.1821","OBJECT_TYPE":"PAYLOAD","ECCENTRICITY":"0.00013080","OBJECT_NAME":"STARLINK-1109","MEAN_MOTION_DOT":"0.00003979","PERIOD":"95.591","MEAN_ANOMALY":"294.9304","BSTAR":"0.00028575000000","EPHEMERIS_TYPE":"0","NORAD_CAT_ID":"44945","ELEMENT_SET_NO":"999","CLASSIFICATION_TYPE":"U","DECAY_DATE":null,"TLE_LINE2":"2 44945  53.0529 134.3170 0001308  65.1821 294.9304 15.06412880165273","SITE":"AFETR","CENTER_NAME":"EARTH","GP_ID":"222194345","RA_OF_ASC_NODE":"134.3170","REV_AT_EPOCH":"16527","REF_FRAME":"TEME","COUNTRY_CODE":"US","TIME_SYSTEM":"UTC","LAUNCH_DATE":"2020-01-07","MEAN_ELEMENT_THEORY":"SGP4","INCLINATION":"53.0529","EPOCH":"2023-01-04T15:14:05.847360","PERIAPSIS":"546.268","OBJECT_ID":"2020-001AH","FILE":"3732069","MEAN_MOTION_DDOT":"0.0000000000000","MEAN_MOTION":"15.06412880"}];
